[{"OBJECT_NAME":"FLOCK 4Q-4","OBJECT_ID":"2023-174BZ","EPOCH":"2026-03-29T04:40:53.514048","MEAN_MOTION":15.45223909,"ECCENTRICITY":0.0007531,"INCLINATION":97.3838,"RA_OF_ASC_NODE":174.342,"ARG_OF_PERICENTER":98.8938,"MEAN_ANOMALY":261.3163,"EPHEMERIS_TYPE":0,"CLASSIFICATION_TYPE":"U","NORAD_CAT_ID":58327,"ELEMENT_SET_NO":999,"REV_AT_EPOCH":13319,"BSTAR":0.00073265,"MEAN_MOTION_DOT":0.00034858,"MEAN_MOTION_DDOT":0},{"OBJECT_NAME":"FLOCK 4Q-13","OBJECT_ID":"2023-174CA","EPOCH":"2026-03-29T04:39:43.233696","MEAN_MOTION":15.48080296,"ECCENTRICITY":0.0007436,"INCLINATION":97.4001,"RA_OF_ASC_NODE":176.8882,"ARG_OF_PERICENTER":89.1335,"MEAN_ANOMALY":271.0767,"EPHEMERIS_TYPE":0,"CLASSIFICATION_TYPE":"U","NORAD_CAT_ID":58328,"ELEMENT_SET_NO":999,"REV_AT_EPOCH":13328,"BSTAR":0.0007153,"MEAN_MOTION_DOT":0.00037555,"MEAN_MOTION_DDOT":0},{"OBJECT_NAME":"FLOCK 4BE-18","OBJECT_ID":"2024-149N","EPOCH":"2026-03-29T04:29:24.074016","MEAN_MOTION":15.39125382,"ECCENTRICITY":0.0004616,"INCLINATION":97.3752,"RA_OF_ASC_NODE":171.2361,"ARG_OF_PERICENTER":169.2729,"MEAN_ANOMALY":190.8616,"EPHEMERIS_TYPE":0,"CLASSIFICATION_TYPE":"U","NORAD_CAT_ID":60480,"ELEMENT_SET_NO":999,"REV_AT_EPOCH":8999,"BSTAR":0.000783,"MEAN_MOTION_DOT":0.00030367,"MEAN_MOTION_DDOT":0},{"OBJECT_NAME":"FLOCK 4BE-7","OBJECT_ID":"2024-149P","EPOCH":"2026-03-29T03:54:01.784160","MEAN_MOTION":15.3705324,"ECCENTRICITY":0.0003804,"INCLINATION":97.3777,"RA_OF_ASC_NODE":170.7455,"ARG_OF_PERICENTER":166.7391,"MEAN_ANOMALY":193.3954,"EPHEMERIS_TYPE":0,"CLASSIFICATION_TYPE":"U","NORAD_CAT_ID":60481,"ELEMENT_SET_NO":999,"REV_AT_EPOCH":8994,"BSTAR":0.00087006,"MEAN_MOTION_DOT":0.00031561,"MEAN_MOTION_DDOT":0},{"OBJECT_NAME":"FLOCK 4BE-26","OBJECT_ID":"2024-149S","EPOCH":"2026-03-29T04:04:50.762208","MEAN_MOTION":15.48410687,"ECCENTRICITY":0.0006369,"INCLINATION":97.373,"RA_OF_ASC_NODE":171.3628,"ARG_OF_PERICENTER":191.9438,"MEAN_ANOMALY":168.1662,"EPHEMERIS_TYPE":0,"CLASSIFICATION_TYPE":"U","NORAD_CAT_ID":60484,"ELEMENT_SET_NO":999,"REV_AT_EPOCH":9000,"BSTAR":0.0029735,"MEAN_MOTION_DOT":0.00160649,"MEAN_MOTION_DDOT":0},{"OBJECT_NAME":"FLOCK 4BE-36","OBJECT_ID":"2024-149U","EPOCH":"2026-03-29T04:55:06.066912","MEAN_MOTION":15.40024578,"ECCENTRICITY":0.0004241,"INCLINATION":97.3763,"RA_OF_ASC_NODE":171.8295,"ARG_OF_PERICENTER":177.7817,"MEAN_ANOMALY":182.3448,"EPHEMERIS_TYPE":0,"CLASSIFICATION_TYPE":"U","NORAD_CAT_ID":60486,"ELEMENT_SET_NO":999,"REV_AT_EPOCH":9003,"BSTAR":0.00075512,"MEAN_MOTION_DOT":0.00030156,"MEAN_MOTION_DDOT":0},{"OBJECT_NAME":"FLOCK 4BE-25","OBJECT_ID":"2024-149V","EPOCH":"2026-03-29T04:19:51.331008","MEAN_MOTION":15.36648089,"ECCENTRICITY":0.0003188,"INCLINATION":97.3819,"RA_OF_ASC_NODE":170.913,"ARG_OF_PERICENTER":158.5306,"MEAN_ANOMALY":201.6072,"EPHEMERIS_TYPE":0,"CLASSIFICATION_TYPE":"U","NORAD_CAT_ID":60487,"ELEMENT_SET_NO":999,"REV_AT_EPOCH":8994,"BSTAR":0.00063599,"MEAN_MOTION_DOT":0.00022722,"MEAN_MOTION_DDOT":0},{"OBJECT_NAME":"FLOCK 4BE-31","OBJECT_ID":"2024-149W","EPOCH":"2026-03-29T05:28:44.761440","MEAN_MOTION":15.40897142,"ECCENTRICITY":0.0003297,"INCLINATION":97.3817,"RA_OF_ASC_NODE":172.5149,"ARG_OF_PERICENTER":171.8494,"MEAN_ANOMALY":188.2806,"EPHEMERIS_TYPE":0,"CLASSIFICATION_TYPE":"U","NORAD_CAT_ID":60488,"ELEMENT_SET_NO":999,"REV_AT_EPOCH":9005,"BSTAR":0.00083056,"MEAN_MOTION_DOT":0.00034159,"MEAN_MOTION_DDOT":0},{"OBJECT_NAME":"FLOCK 4BE-20","OBJECT_ID":"2024-149X","EPOCH":"2026-03-29T04:02:15.515232","MEAN_MOTION":15.3587257,"ECCENTRICITY":0.0004418,"INCLINATION":97.3722,"RA_OF_ASC_NODE":169.9821,"ARG_OF_PERICENTER":171.5015,"MEAN_ANOMALY":188.6304,"EPHEMERIS_TYPE":0,"CLASSIFICATION_TYPE":"U","NORAD_CAT_ID":60489,"ELEMENT_SET_NO":999,"REV_AT_EPOCH":8992,"BSTAR":0.00060354,"MEAN_MOTION_DOT":0.00021027,"MEAN_MOTION_DDOT":0},{"OBJECT_NAME":"FLOCK 4BE-23","OBJECT_ID":"2024-149Y","EPOCH":"2026-03-29T04:54:44.156736","MEAN_MOTION":15.35512326,"ECCENTRICITY":0.0003952,"INCLINATION":97.3803,"RA_OF_ASC_NODE":170.3507,"ARG_OF_PERICENTER":178.6102,"MEAN_ANOMALY":181.5153,"EPHEMERIS_TYPE":0,"CLASSIFICATION_TYPE":"U","NORAD_CAT_ID":60490,"ELEMENT_SET_NO":999,"REV_AT_EPOCH":8991,"BSTAR":0.00057767,"MEAN_MOTION_DOT":0.00019888,"MEAN_MOTION_DDOT":0},{"OBJECT_NAME":"FLOCK 4BE-15","OBJECT_ID":"2024-149Z","EPOCH":"2026-03-29T04:16:06.456864","MEAN_MOTION":15.43696616,"ECCENTRICITY":0.0004883,"INCLINATION":97.3734,"RA_OF_ASC_NODE":171.5621,"ARG_OF_PERICENTER":237.4638,"MEAN_ANOMALY":122.6138,"EPHEMERIS_TYPE":0,"CLASSIFICATION_TYPE":"U","NORAD_CAT_ID":60491,"ELEMENT_SET_NO":999,"REV_AT_EPOCH":9002,"BSTAR":0.0027572,"MEAN_MOTION_DOT":0.00126208,"MEAN_MOTION_DDOT":0},{"OBJECT_NAME":"FLOCK 4BE-17","OBJECT_ID":"2024-149AA","EPOCH":"2026-03-29T03:51:41.462784","MEAN_MOTION":15.37336797,"ECCENTRICITY":0.0003931,"INCLINATION":97.3797,"RA_OF_ASC_NODE":171.0382,"ARG_OF_PERICENTER":167.0049,"MEAN_ANOMALY":193.1298,"EPHEMERIS_TYPE":0,"CLASSIFICATION_TYPE":"U","NORAD_CAT_ID":60492,"ELEMENT_SET_NO":999,"REV_AT_EPOCH":8995,"BSTAR":0.0006302,"MEAN_MOTION_DOT":0.00023022,"MEAN_MOTION_DDOT":0},{"OBJECT_NAME":"FLOCK 4BE-22","OBJECT_ID":"2024-149AC","EPOCH":"2026-03-29T05:04:25.988160","MEAN_MOTION":15.38559698,"ECCENTRICITY":0.0004102,"INCLINATION":97.3752,"RA_OF_ASC_NODE":171.1635,"ARG_OF_PERICENTER":179.2859,"MEAN_ANOMALY":180.8392,"EPHEMERIS_TYPE":0,"CLASSIFICATION_TYPE":"U","NORAD_CAT_ID":60494,"ELEMENT_SET_NO":999,"REV_AT_EPOCH":8999,"BSTAR":0.00070689,"MEAN_MOTION_DOT":0.00026893,"MEAN_MOTION_DDOT":0},{"OBJECT_NAME":"FLOCK 4BE-34","OBJECT_ID":"2024-149AD","EPOCH":"2026-03-29T05:33:04.919616","MEAN_MOTION":15.38675839,"ECCENTRICITY":0.0004181,"INCLINATION":97.38,"RA_OF_ASC_NODE":171.9495,"ARG_OF_PERICENTER":183.0351,"MEAN_ANOMALY":177.087,"EPHEMERIS_TYPE":0,"CLASSIFICATION_TYPE":"U","NORAD_CAT_ID":60495,"ELEMENT_SET_NO":999,"REV_AT_EPOCH":9002,"BSTAR":0.00071104,"MEAN_MOTION_DOT":0.00027155,"MEAN_MOTION_DDOT":0},{"OBJECT_NAME":"FLOCK 4BE-32","OBJECT_ID":"2024-149AF","EPOCH":"2026-03-29T04:14:43.805760","MEAN_MOTION":15.3934301,"ECCENTRICITY":0.0004179,"INCLINATION":97.3741,"RA_OF_ASC_NODE":171.4034,"ARG_OF_PERICENTER":182.742,"MEAN_ANOMALY":177.3803,"EPHEMERIS_TYPE":0,"CLASSIFICATION_TYPE":"U","NORAD_CAT_ID":60497,"ELEMENT_SET_NO":999,"REV_AT_EPOCH":9001,"BSTAR":0.00077231,"MEAN_MOTION_DOT":0.00030163,"MEAN_MOTION_DDOT":0},{"OBJECT_NAME":"FLOCK 4BE-30","OBJECT_ID":"2024-149AH","EPOCH":"2026-03-29T04:15:44.837856","MEAN_MOTION":15.41281433,"ECCENTRICITY":0.0003333,"INCLINATION":97.3819,"RA_OF_ASC_NODE":172.0121,"ARG_OF_PERICENTER":212.5022,"MEAN_ANOMALY":147.602,"EPHEMERIS_TYPE":0,"CLASSIFICATION_TYPE":"U","NORAD_CAT_ID":60499,"ELEMENT_SET_NO":999,"REV_AT_EPOCH":8939,"BSTAR":0.0026706,"MEAN_MOTION_DOT":0.00112564,"MEAN_MOTION_DDOT":0}]
