FLOCK 4Q-4              
1 58327U 23174BZ  26088.19506382  .00034858  00000+0  73265-3 0  9993
2 58327  97.3838 174.3420 0007531  98.8938 261.3163 15.45223909133196
FLOCK 4Q-13             
1 58328U 23174CA  26088.19425039  .00037555  00000+0  71530-3 0  9993
2 58328  97.4001 176.8882 0007436  89.1335 271.0767 15.48080296133288
FLOCK 4BE-18            
1 60480U 24149N   26088.18708419  .00030367  00000+0  78300-3 0  9999
2 60480  97.3752 171.2361 0004616 169.2729 190.8616 15.39125382 89992
FLOCK 4BE-7             
1 60481U 24149P   26088.16252065  .00031561  00000+0  87006-3 0  9999
2 60481  97.3777 170.7455 0003804 166.7391 193.3954 15.37053240 89942
FLOCK 4BE-26            
1 60484U 24149S   26088.17003197  .00160649  00000+0  29735-2 0  9997
2 60484  97.3730 171.3628 0006369 191.9438 168.1662 15.48410687 90003
FLOCK 4BE-36            
1 60486U 24149U   26088.20493133  .00030156  00000+0  75512-3 0  9990
2 60486  97.3763 171.8295 0004241 177.7817 182.3448 15.40024578 90031
FLOCK 4BE-25            
1 60487U 24149V   26088.18045522  .00022722  00000+0  63599-3 0  9995
2 60487  97.3819 170.9130 0003188 158.5306 201.6072 15.36648089 89941
FLOCK 4BE-31            
1 60488U 24149W   26088.22829585  .00034159  00000+0  83056-3 0  9997
2 60488  97.3817 172.5149 0003297 171.8494 188.2806 15.40897142 90055
FLOCK 4BE-20            
1 60489U 24149X   26088.16823513  .00021027  00000+0  60354-3 0  9992
2 60489  97.3722 169.9821 0004418 171.5015 188.6304 15.35872570 89923
FLOCK 4BE-23            
1 60490U 24149Y   26088.20467774  .00019888  00000+0  57767-3 0  9998
2 60490  97.3803 170.3507 0003952 178.6102 181.5153 15.35512326 89912
FLOCK 4BE-15            
1 60491U 24149Z   26088.17785251  .00126208  00000+0  27572-2 0  9993
2 60491  97.3734 171.5621 0004883 237.4638 122.6138 15.43696616 90025
FLOCK 4BE-17            
1 60492U 24149AA  26088.16089656  .00023022  00000+0  63020-3 0  9998
2 60492  97.3797 171.0382 0003931 167.0049 193.1298 15.37336797 89955
FLOCK 4BE-22            
1 60494U 24149AC  26088.21141190  .00026893  00000+0  70689-3 0  9996
2 60494  97.3752 171.1635 0004102 179.2859 180.8392 15.38559698 89995
FLOCK 4BE-34            
1 60495U 24149AD  26088.23130694  .00027155  00000+0  71104-3 0  9991
2 60495  97.3800 171.9495 0004181 183.0351 177.0870 15.38675839 90020
FLOCK 4BE-32            
1 60497U 24149AF  26088.17689590  .00030163  00000+0  77231-3 0  9990
2 60497  97.3741 171.4034 0004179 182.7420 177.3803 15.39343010 90012
FLOCK 4BE-30            
1 60499U 24149AH  26088.17760229  .00112564  00000+0  26706-2 0  9997
2 60499  97.3819 172.0121 0003333 212.5022 147.6020 15.41281433 89398
